TRANSPORTER-11 OBJECT A 
1 60468U 24149A   26068.74646182  .00010774  00000+0  36054-3 0  9993
2 60468  97.3780 149.0949 0003110 191.0010 169.1164 15.31141332 86830
STARLINK-34561          
1 65081U 25167D   26068.27442538  .00034144  00000+0  11595-2 0  9996
2 65081  53.1613  25.9812 0001200  83.3897 276.7240 15.30202692 34701
